OBJECT_NAME,OBJECT_ID,EPOCH,MEAN_MOTION,ECCENTRICITY,INCLINATION,RA_OF_ASC_NODE,ARG_OF_PERICENTER,MEAN_ANOMALY,EPHEMERIS_TYPE,CLASSIFICATION_TYPE,NORAD_CAT_ID,ELEMENT_SET_NO,REV_AT_EPOCH,BSTAR,MEAN_MOTION_DOT,MEAN_MOTION_DDOT
STARLINK-2152,2021-017U,2024-01-20T12:11:28.922496,15.06431903,0.0001262,53.0528,109.4989,82.3053,277.8079,0,U,47740,999,16033,0.0012066,0.00017752,0.0
STARLINK-2154,2021-017V,2024-01-20T15:43:49.535616,15.06393167,0.0001653,53.0546,108.8468,45.653,314.4594,0,U,47741,999,15968,0.00029486,4.112e-05,0.0
STARLINK-2156,2021-017W,2024-01-20T14:25:29.826624,15.06432334,0.0001414,53.0538,99.0789,91.3735,268.7416,0,U,47742,999,16049,0.0011409,0.00016768,0.0
STARLINK-2157,2021-017X,2024-01-20T15:02:39.165216,15.0644381,0.0001476,53.0539,98.9713,97.6536,262.462,0,U,47743,999,15981,0.001412,0.00020838,0.0
STARLINK-2158,2021-017Y,2024-01-20T12:48:35.574912,15.06441529,0.000127,53.053,99.3378,95.6237,264.4897,0,U,47744,999,16048,0.0015622,0.0002309,0.0
STARLINK-2159,2021-017Z,2024-01-20T15:11:56.273280,15.06438552,0.0001303,53.0529,108.9404,92.7458,267.368,0,U,47745,999,15967,0.0014186,0.00020934,0.0
STARLINK-2160,2021-017AA,2024-01-20T13:25:47.783712,15.06428162,0.0001599,53.0542,109.2687,73.1353,286.9812,0,U,47746,999,16028,0.001087,0.00015959,0.0
STARLINK-2161,2021-017AB,2024-01-20T11:46:16.234752,15.06426305,0.0001666,53.0547,99.5825,83.5961,276.5217,0,U,47747,999,16045,0.00062614,9.064e-05,0.0
STARLINK-2162,2021-017AC,2024-01-20T11:35:39.298272,15.06429128,0.0001451,53.0548,99.6152,91.3737,268.7418,0,U,47748,999,16042,0.0011747,0.00017273,0.0
STARLINK-2163,2021-017AD,2024-01-20T15:07:57.504288,15.0643831,0.000146,53.0538,98.9523,82.1847,277.9308,0,U,47749,999,15981,0.0012855,0.00018938,0.0
STARLINK-2164,2021-017AE,2024-01-20T14:36:09.739584,15.06392938,0.0001955,53.0542,99.046,62.0973,298.0214,0,U,47750,999,16044,0.000472,6.754e-05,0.0
STARLINK-2168,2021-017AF,2024-01-20T13:44:22.252128,15.06432723,0.0001373,53.0536,89.2113,93.4192,266.6954,0,U,47751,999,16058,0.0011678,0.00017171,0.0
STARLINK-2169,2021-017AG,2024-01-20T14:32:48.765408,15.06410854,0.0001322,53.0535,104.0606,94.8743,265.2396,0,U,47752,999,16042,0.00044905,6.415e-05,0.0
STARLINK-2170,2021-017AH,2024-01-20T12:22:05.716416,15.06435858,0.0001463,53.0542,109.4679,94.3179,265.7977,0,U,47753,999,16033,0.0012142,0.00017868,0.0
STARLINK-2171,2021-017AJ,2024-01-20T14:50:43.744704,15.06384123,0.0001407,53.0538,109.0061,96.5534,263.5615,0,U,47754,999,15967,-6.9417e-06,-3.85e-06,0.0
STARLINK-2174,2021-017AL,2024-01-20T13:09:53.175168,15.0639925,0.0001613,53.0533,109.3179,91.8476,268.2698,0,U,47756,999,16034,0.00031434,4.404e-05,0.0
STARLINK-2175,2021-017AM,2024-01-20T12:48:37.692576,15.06432024,0.0001453,53.0535,109.3841,104.1196,255.9954,0,U,47757,999,16028,0.001041,0.00015271,0.0
STARLINK-2178,2021-017AQ,2024-01-20T11:59:32.104032,15.06420681,0.0001449,53.0534,119.5348,77.4961,282.6191,0,U,47760,999,16017,0.0003365,4.737e-05,0.0
STARLINK-2179,2021-017AR,2024-01-20T12:43:19.497792,15.06434765,0.0001432,53.0531,109.4019,96.821,263.2942,0,U,47761,999,16029,0.0011141,0.00016367,0.0
STARLINK-2180,2021-017AS,2024-01-20T16:32:12.247296,15.06485201,0.0001642,53.0542,123.699,57.0298,303.0848,0,U,47762,999,15947,0.0028563,0.0004262,0.0
STARLINK-2181,2021-017AT,2024-01-20T13:43:42.487392,15.06434945,0.0001333,53.0527,114.2137,84.3286,275.7855,0,U,47763,999,16022,0.0013322,0.00019636,0.0
STARLINK-2182,2021-017AU,2024-01-20T14:35:27.356064,15.0642151,0.0001734,53.0539,124.0554,70.0748,290.0428,0,U,47764,999,16014,0.00050471,7.248e-05,0.0
STARLINK-2184,2021-017AW,2024-01-20T11:49:33.066912,15.06425467,0.0001411,53.0557,124.5595,97.9482,262.1667,0,U,47766,999,16006,0.00087882,0.00012842,0.0
STARLINK-2185,2021-017AX,2024-01-20T12:27:24.213600,15.0643691,0.0001439,53.0532,109.4516,91.9904,268.125,0,U,47767,999,16034,0.0013031,0.00019201,0.0
STARLINK-2189,2021-017AY,2024-01-20T13:26:32.468064,15.06417744,0.0003167,53.0527,124.6703,31.1985,328.9192,0,U,47768,999,16010,0.0010857,0.00015935,0.0
STARLINK-2192,2021-017AZ,2024-01-20T12:03:31.410432,15.06428607,0.0001364,53.0538,89.5265,100.2956,259.8186,0,U,47769,999,16061,0.0011157,0.00016389,0.0
STARLINK-2193,2021-017BA,2024-01-20T12:14:48.589440,15.06404724,0.0001541,53.0544,104.4852,102.224,257.8921,0,U,47770,999,16038,0.00038138,5.404e-05,0.0
STARLINK-2194,2021-017BB,2024-01-20T12:30:44.420544,15.06399407,0.000157,53.0543,104.4412,94.2144,265.9024,0,U,47771,999,16039,0.00012596,1.595e-05,0.0
STARLINK-2195,2021-017BC,2024-01-20T13:50:59.541792,15.06423392,0.0001357,53.0528,119.1904,98.8755,261.2388,0,U,47772,999,16016,0.00045853,6.559e-05,0.0
STARLINK-2196,2021-017BD,2024-01-20T12:10:09.377472,15.06424034,0.000137,53.0538,119.5002,83.922,276.1925,0,U,47773,999,15951,0.0009605,0.00014063,0.0
