STARLINK-2152           
1 47740U 21017U   24020.50797364  .00017752  00000+0  12066-2 0  9990
2 47740  53.0528 109.4989 0001262  82.3053 277.8079 15.06431903160334
STARLINK-2154           
1 47741U 21017V   24020.65543444  .00004112  00000+0  29486-3 0  9996
2 47741  53.0546 108.8468 0001653  45.6530 314.4594 15.06393167159681
STARLINK-2156           
1 47742U 21017W   24020.60103966  .00016768  00000+0  11409-2 0  9998
2 47742  53.0538  99.0789 0001414  91.3735 268.7416 15.06432334160495
STARLINK-2157           
1 47743U 21017X   24020.62684219  .00020838  00000+0  14120-2 0  9992
2 47743  53.0539  98.9713 0001476  97.6536 262.4620 15.06443810159811
STARLINK-2158           
1 47744U 21017Y   24020.53374508  .00023090  00000+0  15622-2 0  9991
2 47744  53.0530  99.3378 0001270  95.6237 264.4897 15.06441529160481
STARLINK-2159           
1 47745U 21017Z   24020.63329020  .00020934  00000+0  14186-2 0  9990
2 47745  53.0529 108.9404 0001303  92.7458 267.3680 15.06438552159670
STARLINK-2160           
1 47746U 21017AA  24020.55958083  .00015959  00000+0  10870-2 0  9996
2 47746  53.0542 109.2687 0001599  73.1353 286.9812 15.06428162160286
STARLINK-2161           
1 47747U 21017AB  24020.49046568  .00009064  00000+0  62614-3 0  9990
2 47747  53.0547  99.5825 0001666  83.5961 276.5217 15.06426305160452
STARLINK-2162           
1 47748U 21017AC  24020.48309373  .00017273  00000+0  11747-2 0  9997
2 47748  53.0548  99.6152 0001451  91.3737 268.7418 15.06429128160427
STARLINK-2163           
1 47749U 21017AD  24020.63052667  .00018938  00000+0  12855-2 0  9996
2 47749  53.0538  98.9523 0001460  82.1847 277.9308 15.06438310159815
STARLINK-2164           
1 47750U 21017AE  24020.60844606  .00006754  00000+0  47200-3 0  9993
2 47750  53.0542  99.0460 0001955  62.0973 298.0214 15.06392938160446
STARLINK-2168           
1 47751U 21017AF  24020.57247977  .00017171  00000+0  11678-2 0  9992
2 47751  53.0536  89.2113 0001373  93.4192 266.6954 15.06432723160585
STARLINK-2169           
1 47752U 21017AG  24020.60611997  .00006415  00000+0  44905-3 0  9993
2 47752  53.0535 104.0606 0001322  94.8743 265.2396 15.06410854160428
STARLINK-2170           
1 47753U 21017AH  24020.51534394  .00017868  00000+0  12142-2 0  9990
2 47753  53.0542 109.4679 0001463  94.3179 265.7977 15.06435858160331
STARLINK-2171           
1 47754U 21017AJ  24020.61856186 -.00000385  00000+0 -69417-5 0  9996
2 47754  53.0538 109.0061 0001407  96.5534 263.5615 15.06384123159673
STARLINK-2174           
1 47756U 21017AL  24020.54853212  .00004404  00000+0  31434-3 0  9997
2 47756  53.0533 109.3179 0001613  91.8476 268.2698 15.06399250160341
STARLINK-2175           
1 47757U 21017AM  24020.53376959  .00015271  00000+0  10410-2 0  9999
2 47757  53.0535 109.3841 0001453 104.1196 255.9954 15.06432024160287
STARLINK-2178           
1 47760U 21017AQ  24020.49967713  .00004737  00000+0  33650-3 0  9999
2 47760  53.0534 119.5348 0001449  77.4961 282.6191 15.06420681160176
STARLINK-2179           
1 47761U 21017AR  24020.53008678  .00016367  00000+0  11141-2 0  9993
2 47761  53.0531 109.4019 0001432  96.8210 263.2942 15.06434765160291
STARLINK-2180           
1 47762U 21017AS  24020.68903064  .00042620  00000+0  28563-2 0  9990
2 47762  53.0542 123.6990 0001642  57.0298 303.0848 15.06485201159475
STARLINK-2181           
1 47763U 21017AT  24020.57201953  .00019636  00000+0  13322-2 0  9995
2 47763  53.0527 114.2137 0001333  84.3286 275.7855 15.06434945160222
STARLINK-2182           
1 47764U 21017AU  24020.60795551  .00007248  00000+0  50471-3 0  9995
2 47764  53.0539 124.0554 0001734  70.0748 290.0428 15.06421510160149
STARLINK-2184           
1 47766U 21017AW  24020.49274383  .00012842  00000+0  87882-3 0  9991
2 47766  53.0557 124.5595 0001411  97.9482 262.1667 15.06425467160067
STARLINK-2185           
1 47767U 21017AX  24020.51903025  .00019201  00000+0  13031-2 0  9997
2 47767  53.0532 109.4516 0001439  91.9904 268.1250 15.06436910160349
STARLINK-2189           
1 47768U 21017AY  24020.56009801  .00015935  00000+0  10857-2 0  9995
2 47768  53.0527 124.6703 0003167  31.1985 328.9192 15.06417744160104
STARLINK-2192           
1 47769U 21017AZ  24020.50244688  .00016389  00000+0  11157-2 0  9992
2 47769  53.0538  89.5265 0001364 100.2956 259.8186 15.06428607160613
STARLINK-2193           
1 47770U 21017BA  24020.51028460  .00005404  00000+0  38138-3 0  9998
2 47770  53.0544 104.4852 0001541 102.2240 257.8921 15.06404724160389
STARLINK-2194           
1 47771U 21017BB  24020.52134746  .00001595  00000+0  12596-3 0  9992
2 47771  53.0543 104.4412 0001570  94.2144 265.9024 15.06399407160392
STARLINK-2195           
1 47772U 21017BC  24020.57707803  .00006559  00000+0  45853-3 0  9995
2 47772  53.0528 119.1904 0001357  98.8755 261.2388 15.06423392160164
STARLINK-2196           
1 47773U 21017BD  24020.50705298  .00014063  00000+0  96050-3 0  9999
2 47773  53.0538 119.5002 0001370  83.9220 276.1925 15.06424034159519
